STARLINK-2485
1 28142C 21027BC  21325.15140602 -.00001681  00000-0 -11263-3 0  3250
2 28142  53.0544 357.5579 0001508  60.7927  34.4805 15.06398331    12
